NUSAT-49 (KLARA DAN VO*)
1 60500U 24149AJ  26068.79810190  .00012912  00000+0  43568-3 0  9991
2 60500  97.3807 150.7380 0001132 286.7761  73.3356 15.30828857 86935
STARLINK-35403          
1 66081U 25235Z   26068.80604402  .00020620  00000+0  70629-3 0  9990
2 66081  53.1594 244.4130 0001017  94.1706 265.9411 15.30204053 22942
